O3B FM5                 
1 39188U 13031A   23339.58371105 -.00000017  00000+0  00000+0 0  9994
2 39188   0.0336  10.8015 0003016 240.5906 108.5788  5.00114852190782
O3B FM4                 
1 39189U 13031B   23339.63928811 -.00000017  00000+0  00000+0 0  9993
2 39189   0.0613   8.0743 0002985 244.0063 107.8906  5.00116231190805
O3B FM2                 
1 39190U 13031C   23339.53146237 -.00000017  00000+0  00000+0 0  9998
2 39190   0.0664   8.7518 0002827 243.5924 107.6287  5.00115384190858
O3B PFM                 
1 39191U 13031D   23339.75708188 -.00000016  00000+0  00000+0 0  9991
2 39191   0.0423   7.3609 0002621 247.5853 105.0286  5.00116069190419
O3B FM3                 
1 40079U 14038A   23338.41214904 -.00000020  00000+0  00000+0 0  9991
2 40079   0.0537   9.1644 0001255 306.4958  44.3330  5.00116716166725
O3B FM7                 
1 40080U 14038B   23340.15788321 -.00000015  00000+0  00000+0 0  9990
2 40080   0.0569  12.2372 0004202 225.7147 122.0113  5.00115954171938
O3B FM6                 
1 40081U 14038C   23339.78486161 -.00000016  00000+0  00000+0 0  9996
2 40081   0.0544   8.2539 0002673 245.5783 106.1421  5.00115258171581
O3B FM8                 
1 40082U 14038D   23339.63849746 -.00000017  00000+0  00000+0 0  9994
2 40082   0.0550   9.1585 0002729 247.8023 103.0125  5.00115321171694
O3B FM10                
1 40348U 14083A   23339.66497945 -.00000017  00000+0  00000+0 0  9992
2 40348   0.0464   3.2742 0002667 250.7623 105.9378  5.00115379163643
O3B FM11                
1 40349U 14083B   23338.47890409 -.00000019  00000+0  00000+0 0  9995
2 40349   0.0454   9.0581 0002972 230.5441 120.3716  5.00115586163592
O3B FM12                
1 40350U 14083C   23339.50564846 -.00000017  00000+0  00000+0 0  9993
2 40350   0.0462   8.5552 0002597 242.2466 109.1737  5.00115526163665
O3B FM9                 
1 40351U 14083D   23339.53218351 -.00000017  00000+0  00000+0 0  9994
2 40351   0.0448  10.4079 0002754 243.0248 106.5407  5.00115036163816
DIAMOND RED             
1 42783U 17036U   23340.08916485  .00053857  00000+0  78600-3 0  9995
2 42783  97.1268  12.3411 0004663 173.3162 186.8156 15.55495192359360
DIAMOND GREEN           
1 42785U 17036W   23340.07585140  .00068151  00000+0  87620-3 0  9991
2 42785  97.1246  12.9743 0004829 166.9640 193.1743 15.58853804359392
DIAMOND BLUE            
1 42786U 17036X   23340.08369422  .00059874  00000+0  82863-3 0  9992
2 42786  97.1279  12.6952 0005126 166.3483 193.7912 15.56909447359373
LEO VANTAGE 1           
1 43113U 18004C   23339.40150984  .00002813  00000+0  21956-3 0  9995
2 43113  99.2769 123.7825 0385065  17.0510 344.3216 14.58358718302216
O3B FM15                
1 43231U 18024A   23339.79822105 -.00000016  00000+0  00000+0 0  9998
2 43231   0.0470 359.1309 0002688 253.5700 107.2736  5.00114663104784
O3B FM16                
1 43232U 18024B   23339.65125132 -.00000017  00000+0  00000+0 0  9991
2 43232   0.0471 354.1725 0002730 257.5194 108.2822  5.00115140104690
O3B FM14                
1 43233U 18024C   23339.69131874 -.00000016  00000+0  00000+0 0  9995
2 43233   0.0479 352.4838 0002888 257.1293 110.3596  5.00115872104699
O3B FM13                
1 43234U 18024D   23339.54513208 -.00000017  00000+0  00000+0 0  9996
2 43234   0.0468  28.0887 0002183 215.6815 116.2111  5.00115845104817
O3B FM20                
1 44112U 19020A   23339.71800216 -.00000016  00000+0  00000+0 0  9995
2 44112   0.0471   3.2479 0002647 241.3898 115.3387  5.00115808 85329
O3B FM19                
1 44113U 19020B   23339.54511930 -.00000017  00000+0  00000+0 0  9990
2 44113   0.0335  16.2811 0004147 229.4966 114.1826  5.00115842 85180
O3B FM17                
1 44114U 19020C   23339.82510936 -.00000016  00000+0  00000+0 0  9996
2 44114   0.0645 353.7816 0002631 257.9802 108.2134  5.00116124 85270
O3B FM18                
1 44115U 19020D   23339.57165439 -.00000017  00000+0  00000+0 0  9994
2 44115   0.0467   3.5586 0002762 251.2797 105.1348  5.00116116 85399
SALSAT                  
1 46495U 20068K   23339.83310322  .00006226  00000+0  38703-3 0  9995
2 46495  97.7914 290.0821 0012906 255.6820 104.2975 15.09954741174954
O3B MPOWER F1           
1 54755U 22174A   23339.52987244 -.00000017  00000+0  00000+0 0  9990
2 54755   0.0550  17.3975 0005798 251.0587 237.8527  5.00118434 19108
O3B MPOWER F2           
1 54756U 22174B   23339.56057250 -.00000017  00000+0  00000+0 0  9990
2 54756   0.0572  16.4275 0008912 274.0169  69.4636  5.00113444 19182
O3B MPOWER F4           
1 56367U 23059A   23339.68133392 -.00000016  00000+0  00000+0 0  9997
2 56367   0.0381  13.8764 0007178 250.2450  95.8005  5.00114960 12344
O3B MPOWER F3           
1 56368U 23059B   23339.58158958 -.00000017  00000+0  00000+0 0  9993
2 56368   0.0362  12.1887 0004491 279.0665  68.7005  5.00114608  8482
